[{"OBJECT_NAME":"TISAT 1","OBJECT_ID":"2010-035E","EPOCH":"2026-03-09T18:10:07.877568","MEAN_MOTION":15.27628633,"ECCENTRICITY":0.00013432,"INCLINATION":98.0645,"RA_OF_ASC_NODE":6.8512,"ARG_OF_PERICENTER":159.303,"MEAN_ANOMALY":200.8262,"EPHEMERIS_TYPE":0,"CLASSIFICATION_TYPE":"U","NORAD_CAT_ID":36799,"ELEMENT_SET_NO":999,"REV_AT_EPOCH":85250,"BSTAR":0.00091004793,"MEAN_MOTION_DOT":0.00024554,"MEAN_MOTION_DDOT":0},{"OBJECT_NAME":"STARLINK-34150","OBJECT_ID":"2025-101E","EPOCH":"2026-03-09T04:08:41.179776","MEAN_MOTION":15.27562634,"ECCENTRICITY":6.953e-5,"INCLINATION":43.0019,"RA_OF_ASC_NODE":1.1076,"ARG_OF_PERICENTER":271.663,"MEAN_ANOMALY":88.4142,"EPHEMERIS_TYPE":0,"CLASSIFICATION_TYPE":"U","NORAD_CAT_ID":63998,"ELEMENT_SET_NO":999,"REV_AT_EPOCH":4697,"BSTAR":0.0013070268,"MEAN_MOTION_DOT":0.0003586,"MEAN_MOTION_DDOT":0}]
